{
  "type": "FeatureCollection",
  "name": "Compiled pilgrimage place area geometry source",
  "license": "ODbL 1.0; © OpenStreetMap contributors",
  "features": [
    {
      "type": "Feature",
      "id": "RK-05",
      "properties": {
        "research_id": "RK-05",
        "place_id": "place.rk.mohana-kunda",
        "geometry_meaning": "POLYGON_VERTEX",
        "navigation_authorized": false,
        "arrival_authorized": false,
        "source_id": "OSM-WAY-430061166-V2",
        "source_retrieved_on": "2026-09-17",
        "source_url": "https://www.openstreetmap.org/way/430061166",
        "source_version": 2,
        "source_changeset": 67612276,
        "control_status": "CONTROLLED_WATER_AREA_ONLY",
        "confidence": "MEDIUM",
        "name": "Mohana Kund",
        "attribution": "© OpenStreetMap contributors; ODbL 1.0",
        "collection": "RADHA_KUNDA_MICRO",
        "geometry_type": "WATER_BODY_POLYGON",
        "coordinate_semantics": "POLYGON_VERTEX",
        "min_zoom": 15,
        "label_min_zoom": 16.2,
        "map_number": null,
        "visibility": "PRECINCT_ONLY"
      },
      "geometry": {
        "type": "Polygon",
        "coordinates": [
          [
            [
              77.4939412,
              27.5271213
            ],
            [
              77.4938321,
              27.527127
            ],
            [
              77.49376,
              27.5271083
            ],
            [
              77.4937138,
              27.5270701
            ],
            [
              77.4936538,
              27.5269939
            ],
            [
              77.4936025,
              27.5268711
            ],
            [
              77.4935589,
              27.5268506
            ],
            [
              77.4934229,
              27.5268688
            ],
            [
              77.4932792,
              27.5268642
            ],
            [
              77.4931904,
              27.5268187
            ],
            [
              77.4931483,
              27.5267186
            ],
            [
              77.4931073,
              27.5267004
            ],
            [
              77.4930303,
              27.5266936
            ],
            [
              77.4929584,
              27.526623
            ],
            [
              77.4929354,
              27.526532
            ],
            [
              77.4929636,
              27.5264638
            ],
            [
              77.4930264,
              27.5263659
            ],
            [
              77.493242,
              27.5262836
            ],
            [
              77.4933016,
              27.5263079
            ],
            [
              77.4933927,
              27.5263449
            ],
            [
              77.493496,
              27.5263568
            ],
            [
              77.493555,
              27.5263159
            ],
            [
              77.4935858,
              27.526259
            ],
            [
              77.4936166,
              27.5262066
            ],
            [
              77.4937167,
              27.5261475
            ],
            [
              77.4938065,
              27.5260952
            ],
            [
              77.4938886,
              27.5260838
            ],
            [
              77.4939778,
              27.5260487
            ],
            [
              77.494029,
              27.5260049
            ],
            [
              77.4939784,
              27.5259245
            ],
            [
              77.4939873,
              27.5258902
            ],
            [
              77.4939745,
              27.5258508
            ],
            [
              77.4940221,
              27.5258212
            ],
            [
              77.4940449,
              27.5256832
            ],
            [
              77.4940459,
              27.5255392
            ],
            [
              77.4940375,
              27.5254674
            ],
            [
              77.4940344,
              27.5253191
            ],
            [
              77.4940114,
              27.5252134
            ],
            [
              77.493945,
              27.525119
            ],
            [
              77.4939476,
              27.5250386
            ],
            [
              77.4940436,
              27.5249598
            ],
            [
              77.4940544,
              27.5248396
            ],
            [
              77.493957,
              27.5246377
            ],
            [
              77.4939329,
              27.5246118
            ],
            [
              77.493951,
              27.5245945
            ],
            [
              77.4939993,
              27.5244334
            ],
            [
              77.4939519,
              27.5243185
            ],
            [
              77.4939296,
              27.5242703
            ],
            [
              77.4939065,
              27.5242202
            ],
            [
              77.4938449,
              27.5242066
            ],
            [
              77.4937705,
              27.524202
            ],
            [
              77.4936371,
              27.5241565
            ],
            [
              77.4935986,
              27.5240996
            ],
            [
              77.4935396,
              27.5240359
            ],
            [
              77.4935165,
              27.5240018
            ],
            [
              77.4934857,
              27.5238994
            ],
            [
              77.4934241,
              27.5238357
            ],
            [
              77.4934669,
              27.5237481
            ],
            [
              77.4936791,
              27.5237302
            ],
            [
              77.4938838,
              27.523752
            ],
            [
              77.4939163,
              27.523668
            ],
            [
              77.4939399,
              27.5234999
            ],
            [
              77.4939775,
              27.5234963
            ],
            [
              77.4944808,
              27.5234252
            ],
            [
              77.4946631,
              27.523473
            ],
            [
              77.4946606,
              27.5235348
            ],
            [
              77.4948064,
              27.5240011
            ],
            [
              77.4949021,
              27.5239722
            ],
            [
              77.4950714,
              27.5245888
            ],
            [
              77.4949842,
              27.5250803
            ],
            [
              77.4951433,
              27.5254876
            ],
            [
              77.4950535,
              27.525656
            ],
            [
              77.4950198,
              27.5260825
            ],
            [
              77.4941272,
              27.5262362
            ],
            [
              77.4942401,
              27.5267118
            ],
            [
              77.494081,
              27.5267436
            ],
            [
              77.4940964,
              27.5268551
            ],
            [
              77.4940938,
              27.5270008
            ],
            [
              77.4940246,
              27.5270349
            ],
            [
              77.4939904,
              27.5270697
            ],
            [
              77.4939412,
              27.5271213
            ]
          ]
        ]
      }
    }
  ]
}
